NANOSATC-BR1            
1 40024U 14033Q   26068.98267556  .00020336  00000+0  74295-3 0  9994
2 40024  98.0845  92.7804 0004644 147.6715 212.4808 15.28136801638811
STARLINK-35482          
1 66346U 25253AD  26068.40870062  .00025865  00000+0  94572-3 0  9996
2 66346  42.9996 213.9038 0001455 156.1143 203.9777 15.27595146 20202
